CCSDS_OMM_VERS = 2.0
CREATION_DATE  = 
ORIGINATOR     = 

OBJECT_NAME    = STARLINK-36808
OBJECT_ID      = 2026-035C
CENTER_NAME    = EARTH
REF_FRAME      = TEME
TIME_SYSTEM    = UTC
MEAN_ELEMENT_THEORY = SGP/SGP4

EPOCH          = 2026-03-16T13:12:49.417344
MEAN_MOTION    = 15.80879669
ECCENTRICITY   = .0003035
INCLINATION    = 97.2882
RA_OF_ASC_NODE = 8.2841
ARG_OF_PERICENTER = 67.1216
MEAN_ANOMALY   = 293.0373

EPHEMERIS_TYPE = 0
CLASSIFICATION_TYPE = U
NORAD_CAT_ID   = 67881
ELEMENT_SET_NO = 999
REV_AT_EPOCH   = 492
BSTAR          = .19828E-2
MEAN_MOTION_DOT = .398703E-2
MEAN_MOTION_DDOT = 0

CCSDS_OMM_VERS = 2.0
CREATION_DATE  = 
ORIGINATOR     = 

OBJECT_NAME    = STARLINK-36817
OBJECT_ID      = 2026-035D
CENTER_NAME    = EARTH
REF_FRAME      = TEME
TIME_SYSTEM    = UTC
MEAN_ELEMENT_THEORY = SGP/SGP4

EPOCH          = 2026-03-16T13:09:34.104960
MEAN_MOTION    = 15.80909615
ECCENTRICITY   = .0001165
INCLINATION    = 97.2904
RA_OF_ASC_NODE = 8.2858
ARG_OF_PERICENTER = 101.5474
MEAN_ANOMALY   = 258.5925

EPHEMERIS_TYPE = 0
CLASSIFICATION_TYPE = U
NORAD_CAT_ID   = 67882
ELEMENT_SET_NO = 999
REV_AT_EPOCH   = 492
BSTAR          = .12578E-2
MEAN_MOTION_DOT = .248849E-2
MEAN_MOTION_DDOT = 0

CCSDS_OMM_VERS = 2.0
CREATION_DATE  = 
ORIGINATOR     = 

OBJECT_NAME    = STARLINK-36856
OBJECT_ID      = 2026-035E
CENTER_NAME    = EARTH
REF_FRAME      = TEME
TIME_SYSTEM    = UTC
MEAN_ELEMENT_THEORY = SGP/SGP4

EPOCH          = 2026-03-16T13:10:38.623296
MEAN_MOTION    = 15.80898835
ECCENTRICITY   = .0000993
INCLINATION    = 97.2879
RA_OF_ASC_NODE = 8.2854
ARG_OF_PERICENTER = 102.9941
MEAN_ANOMALY   = 257.1438

EPHEMERIS_TYPE = 0
CLASSIFICATION_TYPE = U
NORAD_CAT_ID   = 67883
ELEMENT_SET_NO = 999
REV_AT_EPOCH   = 492
BSTAR          = .1353E-2
MEAN_MOTION_DOT = .268159E-2
MEAN_MOTION_DDOT = 0

CCSDS_OMM_VERS = 2.0
CREATION_DATE  = 
ORIGINATOR     = 

OBJECT_NAME    = STARLINK-36842
OBJECT_ID      = 2026-035F
CENTER_NAME    = EARTH
REF_FRAME      = TEME
TIME_SYSTEM    = UTC
MEAN_ELEMENT_THEORY = SGP/SGP4

EPOCH          = 2026-03-16T20:00:01.999008
MEAN_MOTION    = 15.75236559
ECCENTRICITY   = .0001643
INCLINATION    = 97.2867
RA_OF_ASC_NODE = 8.5763
ARG_OF_PERICENTER = 82.7536
MEAN_ANOMALY   = 61.3932

EPHEMERIS_TYPE = 0
CLASSIFICATION_TYPE = U
NORAD_CAT_ID   = 67884
ELEMENT_SET_NO = 999
REV_AT_EPOCH   = 490
BSTAR          = -.65246E-3
MEAN_MOTION_DOT = -.96555E-3
MEAN_MOTION_DDOT = 0

CCSDS_OMM_VERS = 2.0
CREATION_DATE  = 
ORIGINATOR     = 

OBJECT_NAME    = STARLINK-36826
OBJECT_ID      = 2026-035G
CENTER_NAME    = EARTH
REF_FRAME      = TEME
TIME_SYSTEM    = UTC
MEAN_ELEMENT_THEORY = SGP/SGP4

EPOCH          = 2026-03-16T20:00:01.999008
MEAN_MOTION    = 15.78945613
ECCENTRICITY   = .0001706
INCLINATION    = 97.2873
RA_OF_ASC_NODE = 8.5922
ARG_OF_PERICENTER = 80.3742
MEAN_ANOMALY   = 107.8424

EPHEMERIS_TYPE = 0
CLASSIFICATION_TYPE = U
NORAD_CAT_ID   = 67885
ELEMENT_SET_NO = 999
REV_AT_EPOCH   = 490
BSTAR          = -.12663E-1
MEAN_MOTION_DOT = -.1940005E-1
MEAN_MOTION_DDOT = 0

CCSDS_OMM_VERS = 2.0
CREATION_DATE  = 
ORIGINATOR     = 

OBJECT_NAME    = STARLINK-36390
OBJECT_ID      = 2026-035H
CENTER_NAME    = EARTH
REF_FRAME      = TEME
TIME_SYSTEM    = UTC
MEAN_ELEMENT_THEORY = SGP/SGP4

EPOCH          = 2026-03-16T20:00:01.999008
MEAN_MOTION    = 15.75229108
ECCENTRICITY   = .0001337
INCLINATION    = 97.2865
RA_OF_ASC_NODE = 8.5813
ARG_OF_PERICENTER = 110.4582
MEAN_ANOMALY   = 45.6956

EPHEMERIS_TYPE = 0
CLASSIFICATION_TYPE = U
NORAD_CAT_ID   = 67886
ELEMENT_SET_NO = 999
REV_AT_EPOCH   = 495
BSTAR          = -.56282E-3
MEAN_MOTION_DOT = -.83405E-3
MEAN_MOTION_DDOT = 0

CCSDS_OMM_VERS = 2.0
CREATION_DATE  = 
ORIGINATOR     = 

OBJECT_NAME    = STARLINK-36368
OBJECT_ID      = 2026-035J
CENTER_NAME    = EARTH
REF_FRAME      = TEME
TIME_SYSTEM    = UTC
MEAN_ELEMENT_THEORY = SGP/SGP4

EPOCH          = 2026-03-16T13:05:14.809920
MEAN_MOTION    = 15.80864754
ECCENTRICITY   = .0002164
INCLINATION    = 97.2890
RA_OF_ASC_NODE = 8.2888
ARG_OF_PERICENTER = 76.3741
MEAN_ANOMALY   = 283.7768

EPHEMERIS_TYPE = 0
CLASSIFICATION_TYPE = U
NORAD_CAT_ID   = 67887
ELEMENT_SET_NO = 999
REV_AT_EPOCH   = 492
BSTAR          = .1756E-2
MEAN_MOTION_DOT = .35089E-2
MEAN_MOTION_DDOT = 0

CCSDS_OMM_VERS = 2.0
CREATION_DATE  = 
ORIGINATOR     = 

OBJECT_NAME    = STARLINK-36801
OBJECT_ID      = 2026-035K
CENTER_NAME    = EARTH
REF_FRAME      = TEME
TIME_SYSTEM    = UTC
MEAN_ELEMENT_THEORY = SGP/SGP4

EPOCH          = 2026-03-16T13:04:09.919200
MEAN_MOTION    = 15.80870564
ECCENTRICITY   = .0002505
INCLINATION    = 97.2886
RA_OF_ASC_NODE = 8.2894
ARG_OF_PERICENTER = 66.7559
MEAN_ANOMALY   = 293.3973

EPHEMERIS_TYPE = 0
CLASSIFICATION_TYPE = U
NORAD_CAT_ID   = 67888
ELEMENT_SET_NO = 999
REV_AT_EPOCH   = 492
BSTAR          = .19632E-2
MEAN_MOTION_DOT = .394394E-2
MEAN_MOTION_DDOT = 0

CCSDS_OMM_VERS = 2.0
CREATION_DATE  = 
ORIGINATOR     = 

OBJECT_NAME    = STARLINK-36372
OBJECT_ID      = 2026-035L
CENTER_NAME    = EARTH
REF_FRAME      = TEME
TIME_SYSTEM    = UTC
MEAN_ELEMENT_THEORY = SGP/SGP4

EPOCH          = 2026-03-16T17:35:27.172032
MEAN_MOTION    = 15.80970621
ECCENTRICITY   = .0001218
INCLINATION    = 97.2904
RA_OF_ASC_NODE = 8.4909
ARG_OF_PERICENTER = 94.7608
MEAN_ANOMALY   = 265.3799

EPHEMERIS_TYPE = 0
CLASSIFICATION_TYPE = U
NORAD_CAT_ID   = 67889
ELEMENT_SET_NO = 999
REV_AT_EPOCH   = 495
BSTAR          = .14018E-2
MEAN_MOTION_DOT = .279101E-2
MEAN_MOTION_DDOT = 0

CCSDS_OMM_VERS = 2.0
CREATION_DATE  = 
ORIGINATOR     = 

OBJECT_NAME    = STARLINK-36363
OBJECT_ID      = 2026-035M
CENTER_NAME    = EARTH
REF_FRAME      = TEME
TIME_SYSTEM    = UTC
MEAN_ELEMENT_THEORY = SGP/SGP4

EPOCH          = 2026-03-16T20:00:01.999008
MEAN_MOTION    = 15.75208865
ECCENTRICITY   = .0001161
INCLINATION    = 97.2867
RA_OF_ASC_NODE = 8.5893
ARG_OF_PERICENTER = 105.0145
MEAN_ANOMALY   = 71.1226

EPHEMERIS_TYPE = 0
CLASSIFICATION_TYPE = U
NORAD_CAT_ID   = 67890
ELEMENT_SET_NO = 999
REV_AT_EPOCH   = 490
BSTAR          = -.10268E-3
MEAN_MOTION_DOT = -.1543E-3
MEAN_MOTION_DDOT = 0

CCSDS_OMM_VERS = 2.0
CREATION_DATE  = 
ORIGINATOR     = 

OBJECT_NAME    = STARLINK-36816
OBJECT_ID      = 2026-035N
CENTER_NAME    = EARTH
REF_FRAME      = TEME
TIME_SYSTEM    = UTC
MEAN_ELEMENT_THEORY = SGP/SGP4

EPOCH          = 2026-03-16T18:52:32.442240
MEAN_MOTION    = 15.80905915
ECCENTRICITY   = .000206
INCLINATION    = 97.2894
RA_OF_ASC_NODE = 8.5687
ARG_OF_PERICENTER = 104.5303
MEAN_ANOMALY   = 255.6194

EPHEMERIS_TYPE = 0
CLASSIFICATION_TYPE = U
NORAD_CAT_ID   = 67891
ELEMENT_SET_NO = 999
REV_AT_EPOCH   = 496
BSTAR          = .11325E-2
MEAN_MOTION_DOT = .223355E-2
MEAN_MOTION_DDOT = 0

CCSDS_OMM_VERS = 2.0
CREATION_DATE  = 
ORIGINATOR     = 

OBJECT_NAME    = STARLINK-36813
OBJECT_ID      = 2026-035P
CENTER_NAME    = EARTH
REF_FRAME      = TEME
TIME_SYSTEM    = UTC
MEAN_ELEMENT_THEORY = SGP/SGP4

EPOCH          = 2026-03-16T06:49:48.309888
MEAN_MOTION    = 15.80982298
ECCENTRICITY   = .00008559
INCLINATION    = 97.2840
RA_OF_ASC_NODE = 8.0235
ARG_OF_PERICENTER = 32.9329
MEAN_ANOMALY   = 327.1992

EPHEMERIS_TYPE = 0
CLASSIFICATION_TYPE = U
NORAD_CAT_ID   = 67892
ELEMENT_SET_NO = 999
REV_AT_EPOCH   = 488
BSTAR          = .16361617E-2
MEAN_MOTION_DOT = .327815E-2
MEAN_MOTION_DDOT = 0

