STARLINK-36808          
1 67881U 26035C   26075.55057196  .00398703  00000+0  19828-2 0  9993
2 67881  97.2882   8.2841 0003035  67.1216 293.0373 15.80879669  4926
STARLINK-36817          
1 67882U 26035D   26075.54831140  .00248849  00000+0  12578-2 0  9992
2 67882  97.2904   8.2858 0001165 101.5474 258.5925 15.80909615  4925
STARLINK-36856          
1 67883U 26035E   26075.54905814  .00268159  00000+0  13530-2 0  9998
2 67883  97.2879   8.2854 0000993 102.9941 257.1438 15.80898835  4920
STARLINK-36842          
1 67884U 26035F   26075.83335647 -.00096555  00000+0 -65246-3 0  9995
2 67884  97.2867   8.5763 0001643  82.7536  61.3932 15.75236559  4903
STARLINK-36826          
1 67885U 26035G   26075.83335647 -.01940005  00000+0 -12663-1 0  9998
2 67885  97.2873   8.5922 0001706  80.3742 107.8424 15.78945613  4904
STARLINK-36390          
1 67886U 26035H   26075.83335647 -.00083405  00000+0 -56282-3 0  9997
2 67886  97.2865   8.5813 0001337 110.4582  45.6956 15.75229108  4957
STARLINK-36368          
1 67887U 26035J   26075.54531030  .00350890  00000+0  17560-2 0  9998
2 67887  97.2890   8.2888 0002164  76.3741 283.7768 15.80864754  4922
STARLINK-36801          
1 67888U 26035K   26075.54455925  .00394394  00000+0  19632-2 0  9996
2 67888  97.2886   8.2894 0002505  66.7559 293.3973 15.80870564  4925
STARLINK-36372          
1 67889U 26035L   26075.73295338  .00279101  00000+0  14018-2 0  9999
2 67889  97.2904   8.4909 0001218  94.7608 265.3799 15.80970621  4955
STARLINK-36363          
1 67890U 26035M   26075.83335647 -.00015430  00000+0 -10268-3 0  9999
2 67890  97.2867   8.5893 0001161 105.0145  71.1226 15.75208865  4908
STARLINK-36816          
1 67891U 26035N   26075.78648660  .00223355  00000+0  11325-2 0  9995
2 67891  97.2894   8.5687 0002060 104.5303 255.6194 15.80905915  4964
STARLINK-36813          
1 67892U 26035P   26075.28458692  .00327815  00000+0  16362-2 0  9997
2 67892  97.2840   8.0235 0000855  32.9329 327.1992 15.80982298  4883
